{
  "type": "FeatureCollection",
  "features": [
    {
      "type": "Feature",
      "properties": {
        "norad_id": 34540,
        "name": "IRIDIUM 33 DEB",
        "group": "iridium-33-debris",
        "lat": -67.1593537334308,
        "lon": -59.88770471105984,
        "alt_km": 657.8773232045114,
        "timestamp": "2025-12-09T20:37:09.674201+00:00",
        "meta_object_name": "IRIDIUM 33 DEB",
        "meta_object_id": "1997-051JH",
        "meta_epoch": "2025-12-09T10:06:38.327616",
        "meta_mean_motion": 14.75206443,
        "meta_eccentricity": 0.00158264,
        "meta_inclination": 86.3109,
        "meta_ra_of_asc_node": 309.1237,
        "meta_arg_of_pericenter": 170.9061,
        "meta_mean_anomaly": 317.6863,
        "meta_ephemeris_type": 0,
        "meta_classification_type": "U",
        "meta_norad_cat_id": 34540,
        "meta_element_set_no": 999,
        "meta_rev_at_epoch": 88972,
        "meta_bstar": 0.0023004442,
        "meta_mean_motion_dot": 0.00015619,
        "meta_mean_motion_ddot": 0,
        "tle_line1": "1 34540U 97051JH  25343.42127694  .00015619  00000+0  23004-2 0  9992",
        "tle_line2": "2 34540  86.3109 309.1237 0015826 170.9061 317.6863 14.75206443889720"
      },
      "geometry": {
        "type": "Point",
        "coordinates": [
          -59.88770471105984,
          -67.1593537334308
        ]
      }
    },
    {
      "type": "Feature",
      "properties": {
        "norad_id": 34648,
        "name": "IRIDIUM 33 DEB",
        "group": "iridium-33-debris",
        "lat": 22.217908893255018,
        "lon": -75.41384977891634,
        "alt_km": 816.7953830367387,
        "timestamp": "2025-12-09T20:37:09.674212+00:00",
        "meta_object_name": "IRIDIUM 33 DEB",
        "meta_object_id": "1997-051JZ",
        "meta_epoch": "2025-12-08T20:41:39.004800",
        "meta_mean_motion": 14.11300262,
        "meta_eccentricity": 0.01839546,
        "meta_inclination": 86.3913,
        "meta_ra_of_asc_node": 283.5113,
        "meta_arg_of_pericenter": 310.9542,
        "meta_mean_anomaly": 47.5843,
        "meta_ephemeris_type": 0,
        "meta_classification_type": "U",
        "meta_norad_cat_id": 34648,
        "meta_element_set_no": 999,
        "meta_rev_at_epoch": 84906,
        "meta_bstar": 0.013206348,
        "meta_mean_motion_dot": 0.00028062,
        "meta_mean_motion_ddot": 0,
        "tle_line1": "1 34648U 97051JZ  25342.86225700  .00028062  00000+0  13206-1 0  9993",
        "tle_line2": "2 34648  86.3913 283.5113 0183954 310.9542  47.5843 14.11300262849062"
      },
      "geometry": {
        "type": "Point",
        "coordinates": [
          -75.41384977891634,
          22.217908893255018
        ]
      }
    },
    {
      "type": "Feature",
      "properties": {
        "norad_id": 34651,
        "name": "IRIDIUM 33 DEB",
        "group": "iridium-33-debris",
        "lat": -68.72045374822083,
        "lon": 132.20043410565358,
        "alt_km": 790.6684867693111,
        "timestamp": "2025-12-09T20:37:09.674222+00:00",
        "meta_object_name": "IRIDIUM 33 DEB",
        "meta_object_id": "1997-051KC",
        "meta_epoch": "2025-12-09T10:50:21.790176",
        "meta_mean_motion": 14.25726982,
        "meta_eccentricity": 0.01420306,
        "meta_inclination": 86.2852,
        "meta_ra_of_asc_node": 141.9761,
        "meta_arg_of_pericenter": 214.381,
        "meta_mean_anomaly": 144.8131,
        "meta_ephemeris_type": 0,
        "meta_classification_type": "U",
        "meta_norad_cat_id": 34651,
        "meta_element_set_no": 999,
        "meta_rev_at_epoch": 85849,
        "meta_bstar": 0.004953375,
        "meta_mean_motion_dot": 0.00013098,
        "meta_mean_motion_ddot": 0,
        "tle_line1": "1 34651U 97051KC  25343.45164109  .00013098  00000+0  49534-2 0  9995",
        "tle_line2": "2 34651  86.2852 141.9761 0142030 214.3810 144.8131 14.25726982858492"
      },
      "geometry": {
        "type": "Point",
        "coordinates": [
          132.20043410565358,
          -68.72045374822083
        ]
      }
    },
    {
      "type": "Feature",
      "properties": {
        "norad_id": 34652,
        "name": "IRIDIUM 33 DEB",
        "group": "iridium-33-debris",
        "lat": -34.84679372560109,
        "lon": -21.276340941356406,
        "alt_km": 675.2524341282942,
        "timestamp": "2025-12-09T20:37:09.674233+00:00",
        "meta_object_name": "IRIDIUM 33 DEB",
        "meta_object_id": "1997-051KD",
        "meta_epoch": "2025-12-09T11:37:22.959264",
        "meta_mean_motion": 14.62008914,
        "meta_eccentricity": 0.00262076,
        "meta_inclination": 86.3314,
        "meta_ra_of_asc_node": 341.4507,
        "meta_arg_of_pericenter": 310.1115,
        "meta_mean_anomaly": 203.3524,
        "meta_ephemeris_type": 0,
        "meta_classification_type": "U",
        "meta_norad_cat_id": 34652,
        "meta_element_set_no": 999,
        "meta_rev_at_epoch": 88436,
        "meta_bstar": 0.0015009226,
        "meta_mean_motion_dot": 7.584e-05,
        "meta_mean_motion_ddot": 0,
        "tle_line1": "1 34652U 97051KD  25343.48429351  .00007584  00000+0  15009-2 0  9995",
        "tle_line2": "2 34652  86.3314 341.4507 0026207 310.1115 203.3524 14.62008914884363"
      },
      "geometry": {
        "type": "Point",
        "coordinates": [
          -21.276340941356406,
          -34.84679372560109
        ]
      }
    },
    {
      "type": "Feature",
      "properties": {
        "norad_id": 34690,
        "name": "IRIDIUM 33 DEB",
        "group": "iridium-33-debris",
        "lat": -79.22891849562367,
        "lon": -122.30812044817371,
        "alt_km": 722.4707857812537,
        "timestamp": "2025-12-09T20:37:09.674243+00:00",
        "meta_object_name": "IRIDIUM 33 DEB",
        "meta_object_id": "1997-051KM",
        "meta_epoch": "2025-12-09T15:10:43.096800",
        "meta_mean_motion": 14.55078564,
        "meta_eccentricity": 0.00112096,
        "meta_inclination": 86.378,
        "meta_ra_of_asc_node": 38.3417,
        "meta_arg_of_pericenter": 38.8624,
        "meta_mean_anomaly": 114.3139,
        "meta_ephemeris_type": 0,
        "meta_classification_type": "U",
        "meta_norad_cat_id": 34690,
        "meta_element_set_no": 999,
        "meta_rev_at_epoch": 88049,
        "meta_bstar": 0.00073259338,
        "meta_mean_motion_dot": 3.182e-05,
        "meta_mean_motion_ddot": 0,
        "tle_line1": "1 34690U 97051KM  25343.63244325  .00003182  00000+0  73259-3 0  9992",
        "tle_line2": "2 34690  86.3780  38.3417 0011209  38.8624 114.3139 14.55078564880492"
      },
      "geometry": {
        "type": "Point",
        "coordinates": [
          -122.30812044817371,
          -79.22891849562367
        ]
      }
    },
    {
      "type": "Feature",
      "properties": {
        "norad_id": 34693,
        "name": "IRIDIUM 33 DEB",
        "group": "iridium-33-debris",
        "lat": -79.95538925061639,
        "lon": -76.13399868070705,
        "alt_km": 500.2202236667663,
        "timestamp": "2025-12-09T20:37:09.674253+00:00",
        "meta_object_name": "IRIDIUM 33 DEB",
        "meta_object_id": "1997-051KQ",
        "meta_epoch": "2025-12-09T15:26:24.520704",
        "meta_mean_motion": 15.26753605,
        "meta_eccentricity": 0.00147136,
        "meta_inclination": 86.3066,
        "meta_ra_of_asc_node": 305.3612,
        "meta_arg_of_pericenter": 57.7101,
        "meta_mean_anomaly": 116.4545,
        "meta_ephemeris_type": 0,
        "meta_classification_type": "U",
        "meta_norad_cat_id": 34693,
        "meta_element_set_no": 999,
        "meta_rev_at_epoch": 88867,
        "meta_bstar": 0.0058526638,
        "meta_mean_motion_dot": 0.00157332,
        "meta_mean_motion_ddot": 0,
        "tle_line1": "1 34693U 97051KQ  25343.64333936  .00157332  00000+0  58527-2 0  9990",
        "tle_line2": "2 34693  86.3066 305.3612 0014713  57.7101 116.4545 15.26753605888676"
      },
      "geometry": {
        "type": "Point",
        "coordinates": [
          -76.13399868070705,
          -79.95538925061639
        ]
      }
    },
    {
      "type": "Feature",
      "properties": {
        "norad_id": 34696,
        "name": "IRIDIUM 33 DEB",
        "group": "iridium-33-debris",
        "lat": -63.14899211831438,
        "lon": 21.28726889881884,
        "alt_km": 710.3622038483109,
        "timestamp": "2025-12-09T20:37:09.674263+00:00",
        "meta_object_name": "IRIDIUM 33 DEB",
        "meta_object_id": "1997-051KT",
        "meta_epoch": "2025-12-09T09:30:59.474016",
        "meta_mean_motion": 14.64808482,
        "meta_eccentricity": 0.00742951,
        "meta_inclination": 86.1845,
        "meta_ra_of_asc_node": 29.0773,
        "meta_arg_of_pericenter": 178.7552,
        "meta_mean_anomaly": 199.1834,
        "meta_ephemeris_type": 0,
        "meta_classification_type": "U",
        "meta_norad_cat_id": 34696,
        "meta_element_set_no": 999,
        "meta_rev_at_epoch": 86624,
        "meta_bstar": 0.0068804754,
        "meta_mean_motion_dot": 0.00038407,
        "meta_mean_motion_ddot": 0,
        "tle_line1": "1 34696U 97051KT  25343.39652169  .00038407  00000+0  68805-2 0  9998",
        "tle_line2": "2 34696  86.1845  29.0773 0074295 178.7552 199.1834 14.64808482866248"
      },
      "geometry": {
        "type": "Point",
        "coordinates": [
          21.28726889881884,
          -63.14899211831438
        ]
      }
    }
  ]
}